{
  "type": "FeatureCollection",
  "features": [
    {
      "type": "Feature",
      "properties": {
        "norad_id": 66948,
        "name": "STARLINK-36116",
        "group": "last-30-days",
        "lat": 48.56884285845923,
        "lon": 98.03127436994468,
        "alt_km": 409.2151990285165,
        "timestamp": "2025-12-27T16:33:28.974568+00:00",
        "meta_object_name": "STARLINK-36116",
        "meta_object_id": "2025-286Z",
        "meta_epoch": "2025-12-27T12:00:02.000160",
        "meta_mean_motion": 15.50947265,
        "meta_eccentricity": 0.0001402,
        "meta_inclination": 53.1593,
        "meta_ra_of_asc_node": 337.0965,
        "meta_arg_of_pericenter": 70.789,
        "meta_mean_anomaly": 59.0293,
        "meta_ephemeris_type": 0,
        "meta_classification_type": "U",
        "meta_norad_cat_id": 66948,
        "meta_element_set_no": 999,
        "meta_rev_at_epoch": 436,
        "meta_bstar": -0.038876,
        "meta_mean_motion_dot": -0.02042817,
        "meta_mean_motion_ddot": 0,
        "tle_line1": "1 66948U 25286Z   25361.50002315 -.02042817  00000+0 -38876-1 0  9997",
        "tle_line2": "2 66948  53.1593 337.0965 0001402  70.7890  59.0293 15.50947265  4367"
      },
      "geometry": {
        "type": "Point",
        "coordinates": [
          98.03127436994468,
          48.56884285845923
        ]
      }
    },
    {
      "type": "Feature",
      "properties": {
        "norad_id": 66949,
        "name": "STARLINK-36096",
        "group": "last-30-days",
        "lat": 46.82832725807274,
        "lon": 103.12653579188388,
        "alt_km": 409.6152314694082,
        "timestamp": "2025-12-27T16:33:28.974578+00:00",
        "meta_object_name": "STARLINK-36096",
        "meta_object_id": "2025-286AA",
        "meta_epoch": "2025-12-27T12:00:02.000160",
        "meta_mean_motion": 15.50970404,
        "meta_eccentricity": 0.000164,
        "meta_inclination": 53.1595,
        "meta_ra_of_asc_node": 337.0881,
        "meta_arg_of_pericenter": 54.6498,
        "meta_mean_anomaly": 78.9987,
        "meta_ephemeris_type": 0,
        "meta_classification_type": "U",
        "meta_norad_cat_id": 66949,
        "meta_element_set_no": 999,
        "meta_rev_at_epoch": 436,
        "meta_bstar": -0.039949,
        "meta_mean_motion_dot": -0.02094661,
        "meta_mean_motion_ddot": 0,
        "tle_line1": "1 66949U 25286AA  25361.50002315 -.02094661  00000+0 -39949-1 0  9994",
        "tle_line2": "2 66949  53.1595 337.0881 0001640  54.6498  78.9987 15.50970404  4367"
      },
      "geometry": {
        "type": "Point",
        "coordinates": [
          103.12653579188388,
          46.82832725807274
        ]
      }
    },
    {
      "type": "Feature",
      "properties": {
        "norad_id": 66950,
        "name": "STARLINK-36111",
        "group": "last-30-days",
        "lat": 44.88368544501805,
        "lon": 107.86603098715604,
        "alt_km": 409.88411856103994,
        "timestamp": "2025-12-27T16:33:28.974588+00:00",
        "meta_object_name": "STARLINK-36111",
        "meta_object_id": "2025-286AB",
        "meta_epoch": "2025-12-27T12:00:02.000160",
        "meta_mean_motion": 15.50947486,
        "meta_eccentricity": 0.0001494,
        "meta_inclination": 53.1597,
        "meta_ra_of_asc_node": 337.0805,
        "meta_arg_of_pericenter": 63.9084,
        "meta_mean_anomaly": 73.5792,
        "meta_ephemeris_type": 0,
        "meta_classification_type": "U",
        "meta_norad_cat_id": 66950,
        "meta_element_set_no": 999,
        "meta_rev_at_epoch": 436,
        "meta_bstar": -0.03893,
        "meta_mean_motion_dot": -0.02045434,
        "meta_mean_motion_ddot": 0,
        "tle_line1": "1 66950U 25286AB  25361.50002315 -.02045434  00000+0 -38930-1 0  9999",
        "tle_line2": "2 66950  53.1597 337.0805 0001494  63.9084  73.5792 15.50947486  4367"
      },
      "geometry": {
        "type": "Point",
        "coordinates": [
          107.86603098715604,
          44.88368544501805
        ]
      }
    },
    {
      "type": "Feature",
      "properties": {
        "norad_id": 66951,
        "name": "STARLINK-35999",
        "group": "last-30-days",
        "lat": 43.840658528754666,
        "lon": 110.11317215468004,
        "alt_km": 409.91323747828665,
        "timestamp": "2025-12-27T16:33:28.974602+00:00",
        "meta_object_name": "STARLINK-35999",
        "meta_object_id": "2025-286AC",
        "meta_epoch": "2025-12-27T12:00:02.000160",
        "meta_mean_motion": 15.50925205,
        "meta_eccentricity": 0.0001598,
        "meta_inclination": 53.1597,
        "meta_ra_of_asc_node": 337.0764,
        "meta_arg_of_pericenter": 74.2121,
        "meta_mean_anomaly": 65.2018,
        "meta_ephemeris_type": 0,
        "meta_classification_type": "U",
        "meta_norad_cat_id": 66951,
        "meta_element_set_no": 999,
        "meta_rev_at_epoch": 436,
        "meta_bstar": -0.038342,
        "meta_mean_motion_dot": -0.02016443,
        "meta_mean_motion_ddot": 0,
        "tle_line1": "1 66951U 25286AC  25361.50002315 -.02016443  00000+0 -38342-1 0  9995",
        "tle_line2": "2 66951  53.1597 337.0764 0001598  74.2121  65.2018 15.50925205  4368"
      },
      "geometry": {
        "type": "Point",
        "coordinates": [
          110.11317215468004,
          43.840658528754666
        ]
      }
    },
    {
      "type": "Feature",
      "properties": {
        "norad_id": 66952,
        "name": "STARLINK-36122",
        "group": "last-30-days",
        "lat": 45.883363145180084,
        "lon": 105.53142882534364,
        "alt_km": 409.7216803925812,
        "timestamp": "2025-12-27T16:33:28.974617+00:00",
        "meta_object_name": "STARLINK-36122",
        "meta_object_id": "2025-286AD",
        "meta_epoch": "2025-12-27T12:00:02.000160",
        "meta_mean_motion": 15.50943087,
        "meta_eccentricity": 0.0001379,
        "meta_inclination": 53.1596,
        "meta_ra_of_asc_node": 337.0847,
        "meta_arg_of_pericenter": 67.2534,
        "meta_mean_anomaly": 68.3179,
        "meta_ephemeris_type": 0,
        "meta_classification_type": "U",
        "meta_norad_cat_id": 66952,
        "meta_element_set_no": 999,
        "meta_rev_at_epoch": 436,
        "meta_bstar": -0.03876,
        "meta_mean_motion_dot": -0.02037125,
        "meta_mean_motion_ddot": 0,
        "tle_line1": "1 66952U 25286AD  25361.50002315 -.02037125  00000+0 -38760-1 0  9990",
        "tle_line2": "2 66952  53.1596 337.0847 0001379  67.2534  68.3179 15.50943087  4367"
      },
      "geometry": {
        "type": "Point",
        "coordinates": [
          105.53142882534364,
          45.883363145180084
        ]
      }
    },
    {
      "type": "Feature",
      "properties": {
        "norad_id": 66953,
        "name": "HULIANWANG DIGUI-114",
        "group": "last-30-days",
        "lat": -76.16481781709585,
        "lon": -33.68333529415069,
        "alt_km": 1024.3373162321432,
        "timestamp": "2025-12-27T16:33:28.974628+00:00",
        "meta_object_name": "HULIANWANG DIGUI-114",
        "meta_object_id": "2025-287A",
        "meta_epoch": "2025-12-20T09:09:14.655168",
        "meta_mean_motion": 13.66161866,
        "meta_eccentricity": 0.00096738,
        "meta_inclination": 86.496,
        "meta_ra_of_asc_node": 343.3747,
        "meta_arg_of_pericenter": 185.0352,
        "meta_mean_anomaly": 175.071,
        "meta_ephemeris_type": 0,
        "meta_classification_type": "U",
        "meta_norad_cat_id": 66953,
        "meta_element_set_no": 999,
        "meta_rev_at_epoch": 157,
        "meta_bstar": 3.033618e-06,
        "meta_mean_motion_dot": 1.9e-07,
        "meta_mean_motion_ddot": 0,
        "tle_line1": "1 66953U 25287A   25354.38141962  .00000019  00000+0  30336-5 0  9995",
        "tle_line2": "2 66953  86.4960 343.3747 0009673 185.0352 175.0710 13.66161866  1572"
      },
      "geometry": {
        "type": "Point",
        "coordinates": [
          -33.68333529415069,
          -76.16481781709585
        ]
      }
    },
    {
      "type": "Feature",
      "properties": {
        "norad_id": 66954,
        "name": "HULIANWANG DIGUI-115",
        "group": "last-30-days",
        "lat": -67.80368747529118,
        "lon": 169.35769121513454,
        "alt_km": 1032.271326158224,
        "timestamp": "2025-12-27T16:33:28.974638+00:00",
        "meta_object_name": "HULIANWANG DIGUI-115",
        "meta_object_id": "2025-287B",
        "meta_epoch": "2025-12-24T22:10:56.489088",
        "meta_mean_motion": 13.63539042,
        "meta_eccentricity": 0.0003385,
        "meta_inclination": 86.5036,
        "meta_ra_of_asc_node": 341.7372,
        "meta_arg_of_pericenter": 109.9724,
        "meta_mean_anomaly": 250.1798,
        "meta_ephemeris_type": 0,
        "meta_classification_type": "U",
        "meta_norad_cat_id": 66954,
        "meta_element_set_no": 999,
        "meta_rev_at_epoch": 219,
        "meta_bstar": 8.442119e-06,
        "meta_mean_motion_dot": 2.3e-07,
        "meta_mean_motion_ddot": 0,
        "tle_line1": "1 66954U 25287B   25358.92426492  .00000023  00000+0  84421-5 0  9993",
        "tle_line2": "2 66954  86.5036 341.7372 0003385 109.9724 250.1798 13.63539042  2198"
      },
      "geometry": {
        "type": "Point",
        "coordinates": [
          169.35769121513454,
          -67.80368747529118
        ]
      }
    }
  ]
}